OBJECT_NAME,OBJECT_ID,EPOCH,MEAN_MOTION,ECCENTRICITY,INCLINATION,RA_OF_ASC_NODE,ARG_OF_PERICENTER,MEAN_ANOMALY,EPHEMERIS_TYPE,CLASSIFICATION_TYPE,NORAD_CAT_ID,ELEMENT_SET_NO,REV_AT_EPOCH,BSTAR,MEAN_MOTION_DOT,MEAN_MOTION_DDOT
M2 PATHFINDER,2020-037E,2026-07-12T23:33:04.872096,15.04787964,.00130896,97.8146,25.5047,69.3329,290.9298,0,U,45727,999,32937,.68590743E-4,.905E-5,0
NETSAT-4,2020-068U,2026-07-12T23:29:09.646368,15.44709153,.00044971,97.8603,204.3078,201.3286,158.7775,0,U,46504,999,31975,.28211301E-3,.13082E-3,0
NETSAT-3,2020-068V,2026-07-13T06:19:37.966368,15.43563557,.00035602,97.8649,202.8011,219.4839,140.6148,0,U,46505,999,31970,.25092065E-3,.11177E-3,0
NETSAT-1,2020-068W,2026-07-12T22:49:34.731552,15.35213925,.00024102,97.8748,196.4849,276.5907,83.5061,0,U,46506,999,31925,.2474317E-3,.837E-4,0
NETSAT-2,2020-068X,2026-07-12T11:07:23.727648,15.47081469,.00017834,97.8611,203.7420,220.9475,139.1640,0,U,46507,999,31964,.30146263E-3,.15171E-3,0
GREENCUBE (IO-117),2022-080E,2026-07-12T17:00:29.177856,6.42583319,.00090302,70.1415,289.3709,284.1311,75.8345,0,U,53109,999,9370,0,-.3E-7,0
SITRO-AIS 5 (KATYS),2023-091L,2026-07-13T07:12:17.681760,15.30038609,.00108359,97.5053,258.4560,19.1118,341.0526,0,U,57176,999,16833,.24344421E-3,.7011E-4,0
SITRO-AIS 6 (CHIRKIN),2023-091AC,2026-07-13T06:35:31.953696,15.26415592,.0011395,97.5061,257.4091,23.2308,336.9443,0,U,57192,999,16826,.22599906E-3,.5819E-4,0
SITRO-AIS 8 (ANOKHIN),2023-091AD,2026-07-13T06:29:46.334688,15.32824366,.00097181,97.5049,260.1233,15.2150,344.9382,0,U,57193,999,16844,.27780766E-3,.874E-4,0
SITRO-AIS 7 (FARTUSHNIY),2023-091AE,2026-07-13T06:47:53.621664,15.26090323,.00113428,97.5057,257.2289,24.4069,335.7704,0,U,57194,999,16825,.21286031E-3,.5422E-4,0
SITRO-AIS 10 (BURDAEV),2023-091AK,2026-07-13T06:07:30.368640,15.39580598,.00050206,97.5075,265.4363,349.5405,10.5735,0,U,57199,999,16877,.3203556E-3,.12531E-3,0
SITRO-AIS 9 (SHCHUKIN),2023-091AM,2026-07-13T06:57:44.872416,15.39067128,.00052924,97.5074,265.1814,349.7709,10.3427,0,U,57201,999,16876,.32309764E-3,.12429E-3,0
SITRO-AIS 12 (SMIRENNIY),2023-091AQ,2026-07-13T05:03:28.738656,15.39361361,.00048383,97.5087,265.5836,342.9843,17.1239,0,U,57204,999,16877,.32909397E-3,.12783E-3,0
SITRO-AIS 11 (SHEFFER),2023-091AU,2026-07-13T06:45:49.552128,15.39805059,.00047355,97.5085,265.9197,342.1001,18.0077,0,U,57208,999,16880,.32737201E-3,.12902E-3,0
SITRO-AIS 25,2024-039R,2026-07-13T07:17:38.720832,14.93635765,.01426405,95.3894,253.0395,236.2076,122.5499,0,U,59066,999,12862,.14377736E-3,.1819E-4,0
SITRO-AIS 26,2024-039S,2026-07-13T07:24:48.132288,14.93427966,.01429812,95.3894,252.9351,236.8114,121.9333,0,U,59067,999,12861,.14687257E-3,.185E-4,0
SITRO-AIS 27,2024-039T,2026-07-13T06:31:21.132768,14.93852985,.01420305,95.3899,253.1935,235.4757,123.2993,0,U,59068,999,12863,.11687605E-3,.1478E-4,0
SITRO-AIS 28,2024-039U,2026-07-13T07:34:29.593920,14.93886500,.01419515,95.3897,253.2724,235.1532,123.6277,0,U,59071,999,12864,.15593002E-3,.1986E-4,0
GRBBETA,2024-128C,2026-07-13T05:38:25.455840,15.06800912,.00373052,61.9896,124.8657,140.2081,220.1759,0,U,60237,999,11019,.14278378E-3,.1948E-4,0
OOV-CUBE (TUBSAT-30),2024-128F,2026-07-13T06:30:15.082560,15.02869223,.00413775,61.9937,134.6127,139.5955,220.8222,0,U,60240,999,11003,.9485134E-4,.1084E-4,0
ROBUSTA-3A (MEDITERRANEE),2024-128J,2026-07-13T06:15:15.031296,15.11970094,.00382502,61.9865,116.0196,133.5753,226.8529,0,U,60243,999,11036,.27074585E-3,.4521E-4,0
LASARSAT,2024-247Q,2026-07-12T23:54:51.800832,15.47948222,.00069769,44.9747,117.0092,149.4103,210.7196,0,U,62391,999,8731,.53150637E-3,.28123E-3,0
CROCUBE,2024-247T,2026-07-11T23:51:35.008416,15.50022679,.00071113,44.9710,119.5598,151.4755,208.6527,0,U,62394,999,8719,.48357142E-3,.27505E-3,0
FORESAIL-1 PRIME,2025-276DS,2026-07-13T03:38:54.599712,15.18928427,.00030419,97.4194,266.9496,49.5627,310.5873,0,U,66778,999,3434,.14455425E-3,.2951E-4,0
KNACKSAT-2,1998-067XZ,2026-07-13T06:37:11.095104,15.62269029,.0008057,51.6258,163.0209,321.9354,38.1070,0,U,67683,999,2435,.4098E-3,.36553E-3,0
